{
  "type": "FeatureCollection",
  "features": [
    {
      "type": "Feature",
      "properties": {
        "norad_id": 29994,
        "name": "FENGYUN 1C DEB",
        "group": "fengyun-1c-debris",
        "lat": 66.98451532311388,
        "lon": -140.79736453876438,
        "alt_km": 902.7728675187227,
        "timestamp": "2025-12-11T10:53:16.159756+00:00",
        "meta_object_name": "FENGYUN 1C DEB",
        "meta_object_id": "1999-025LU",
        "meta_epoch": "2025-12-11T02:03:32.427936",
        "meta_mean_motion": 14.02642725,
        "meta_eccentricity": 0.0129524,
        "meta_inclination": 98.8296,
        "meta_ra_of_asc_node": 17.3826,
        "meta_arg_of_pericenter": 218.2464,
        "meta_mean_anomaly": 197.9593,
        "meta_ephemeris_type": 0,
        "meta_classification_type": "U",
        "meta_norad_cat_id": 29994,
        "meta_element_set_no": 999,
        "meta_rev_at_epoch": 96703,
        "meta_bstar": 0.0002212,
        "meta_mean_motion_dot": 3.24e-06,
        "meta_mean_motion_ddot": 0,
        "tle_line1": "1 29994U 99025LU  25345.08579199  .00000324  00000+0  22120-3 0  9993",
        "tle_line2": "2 29994  98.8296  17.3826 0129524 218.2464 197.9593 14.02642725967035"
      },
      "geometry": {
        "type": "Point",
        "coordinates": [
          -140.79736453876438,
          66.98451532311388
        ]
      }
    },
    {
      "type": "Feature",
      "properties": {
        "norad_id": 29996,
        "name": "FENGYUN 1C DEB",
        "group": "fengyun-1c-debris",
        "lat": -78.05040269319827,
        "lon": 152.0238445950786,
        "alt_km": 962.9439960944192,
        "timestamp": "2025-12-11T10:53:16.159766+00:00",
        "meta_object_name": "FENGYUN 1C DEB",
        "meta_object_id": "1999-025LW",
        "meta_epoch": "2025-12-11T01:16:36.537888",
        "meta_mean_motion": 14.09400782,
        "meta_eccentricity": 0.0131861,
        "meta_inclination": 99.3037,
        "meta_ra_of_asc_node": 22.3755,
        "meta_arg_of_pericenter": 92.6954,
        "meta_mean_anomaly": 298.7676,
        "meta_ephemeris_type": 0,
        "meta_classification_type": "U",
        "meta_norad_cat_id": 29996,
        "meta_element_set_no": 999,
        "meta_rev_at_epoch": 96113,
        "meta_bstar": 0.0025178,
        "meta_mean_motion_dot": 4.717e-05,
        "meta_mean_motion_ddot": 0,
        "tle_line1": "1 29996U 99025LW  25345.05320067  .00004717  00000+0  25178-2 0  9995",
        "tle_line2": "2 29996  99.3037  22.3755 0131861  92.6954 298.7676 14.09400782961137"
      },
      "geometry": {
        "type": "Point",
        "coordinates": [
          152.0238445950786,
          -78.05040269319827
        ]
      }
    },
    {
      "type": "Feature",
      "properties": {
        "norad_id": 29997,
        "name": "FENGYUN 1C DEB",
        "group": "fengyun-1c-debris",
        "lat": -44.38621462428853,
        "lon": 4.740680048486758,
        "alt_km": 841.2639443381913,
        "timestamp": "2025-12-11T10:53:16.159776+00:00",
        "meta_object_name": "FENGYUN 1C DEB",
        "meta_object_id": "1999-025LX",
        "meta_epoch": "2025-12-10T18:48:44.956224",
        "meta_mean_motion": 14.00870782,
        "meta_eccentricity": 0.00802633,
        "meta_inclination": 98.8814,
        "meta_ra_of_asc_node": 355.286,
        "meta_arg_of_pericenter": 332.8039,
        "meta_mean_anomaly": 206.4012,
        "meta_ephemeris_type": 0,
        "meta_classification_type": "U",
        "meta_norad_cat_id": 29997,
        "meta_element_set_no": 999,
        "meta_rev_at_epoch": 96362,
        "meta_bstar": 0.0011261201,
        "meta_mean_motion_dot": 1.687e-05,
        "meta_mean_motion_ddot": 0,
        "tle_line1": "1 29997U 99025LX  25344.78385366  .00001687  00000+0  11261-2 0  9999",
        "tle_line2": "2 29997  98.8814 355.2860 0080263 332.8039 206.4012 14.00870782963620"
      },
      "geometry": {
        "type": "Point",
        "coordinates": [
          4.740680048486758,
          -44.38621462428853
        ]
      }
    },
    {
      "type": "Feature",
      "properties": {
        "norad_id": 29998,
        "name": "FENGYUN 1C DEB",
        "group": "fengyun-1c-debris",
        "lat": 74.69563295319864,
        "lon": 8.952027547764349,
        "alt_km": 791.8178926578084,
        "timestamp": "2025-12-11T10:53:16.159787+00:00",
        "meta_object_name": "FENGYUN 1C DEB",
        "meta_object_id": "1999-025LY",
        "meta_epoch": "2025-12-11T03:48:03.744288",
        "meta_mean_motion": 14.28534083,
        "meta_eccentricity": 0.0004731,
        "meta_inclination": 99.3063,
        "meta_ra_of_asc_node": 45.4507,
        "meta_arg_of_pericenter": 304.8591,
        "meta_mean_anomaly": 55.2143,
        "meta_ephemeris_type": 0,
        "meta_classification_type": "U",
        "meta_norad_cat_id": 29998,
        "meta_element_set_no": 999,
        "meta_rev_at_epoch": 97852,
        "meta_bstar": 0.0012576,
        "meta_mean_motion_dot": 3.104e-05,
        "meta_mean_motion_ddot": 0,
        "tle_line1": "1 29998U 99025LY  25345.15837667  .00003104  00000+0  12576-2 0  9994",
        "tle_line2": "2 29998  99.3063  45.4507 0004731 304.8591  55.2143 14.28534083978528"
      },
      "geometry": {
        "type": "Point",
        "coordinates": [
          8.952027547764349,
          74.69563295319864
        ]
      }
    },
    {
      "type": "Feature",
      "properties": {
        "norad_id": 29999,
        "name": "FENGYUN 1C DEB",
        "group": "fengyun-1c-debris",
        "lat": -54.54191447757748,
        "lon": 137.523393713409,
        "alt_km": 865.1160566367062,
        "timestamp": "2025-12-11T10:53:16.159797+00:00",
        "meta_object_name": "FENGYUN 1C DEB",
        "meta_object_id": "1999-025LZ",
        "meta_epoch": "2025-12-11T04:48:06.541344",
        "meta_mean_motion": 14.20130657,
        "meta_eccentricity": 0.0189516,
        "meta_inclination": 98.5763,
        "meta_ra_of_asc_node": 329.5108,
        "meta_arg_of_pericenter": 130.9939,
        "meta_mean_anomaly": 246.5883,
        "meta_ephemeris_type": 0,
        "meta_classification_type": "U",
        "meta_norad_cat_id": 29999,
        "meta_element_set_no": 999,
        "meta_rev_at_epoch": 97702,
        "meta_bstar": 0.00037409,
        "meta_mean_motion_dot": 9.13e-06,
        "meta_mean_motion_ddot": 0,
        "tle_line1": "1 29999U 99025LZ  25345.20007571  .00000913  00000+0  37409-3 0  9992",
        "tle_line2": "2 29999  98.5763 329.5108 0189516 130.9939 246.5883 14.20130657977020"
      },
      "geometry": {
        "type": "Point",
        "coordinates": [
          137.523393713409,
          -54.54191447757748
        ]
      }
    },
    {
      "type": "Feature",
      "properties": {
        "norad_id": 30001,
        "name": "FENGYUN 1C DEB",
        "group": "fengyun-1c-debris",
        "lat": 79.47717761903536,
        "lon": -61.42442406383541,
        "alt_km": 728.8060368064216,
        "timestamp": "2025-12-11T10:53:16.159808+00:00",
        "meta_object_name": "FENGYUN 1C DEB",
        "meta_object_id": "1999-025MA",
        "meta_epoch": "2025-12-10T11:08:19.394304",
        "meta_mean_motion": 14.38521096,
        "meta_eccentricity": 0.00382266,
        "meta_inclination": 98.9589,
        "meta_ra_of_asc_node": 59.4119,
        "meta_arg_of_pericenter": 105.3706,
        "meta_mean_anomaly": 268.5392,
        "meta_ephemeris_type": 0,
        "meta_classification_type": "U",
        "meta_norad_cat_id": 30001,
        "meta_element_set_no": 999,
        "meta_rev_at_epoch": 97399,
        "meta_bstar": 0.0040822057,
        "meta_mean_motion_dot": 0.00012559,
        "meta_mean_motion_ddot": 0,
        "tle_line1": "1 30001U 99025MA  25344.46411336  .00012559  00000+0  40822-2 0  9994",
        "tle_line2": "2 30001  98.9589  59.4119 0038226 105.3706 268.5392 14.38521096973997"
      },
      "geometry": {
        "type": "Point",
        "coordinates": [
          -61.42442406383541,
          79.47717761903536
        ]
      }
    },
    {
      "type": "Feature",
      "properties": {
        "norad_id": 30003,
        "name": "FENGYUN 1C DEB",
        "group": "fengyun-1c-debris",
        "lat": 30.721098141412533,
        "lon": 145.98335958527795,
        "alt_km": 847.1862960379458,
        "timestamp": "2025-12-11T10:53:16.159819+00:00",
        "meta_object_name": "FENGYUN 1C DEB",
        "meta_object_id": "1999-025MC",
        "meta_epoch": "2025-12-10T17:40:29.272224",
        "meta_mean_motion": 13.85621583,
        "meta_eccentricity": 0.01433498,
        "meta_inclination": 99.5764,
        "meta_ra_of_asc_node": 319.4931,
        "meta_arg_of_pericenter": 125.1382,
        "meta_mean_anomaly": 47.152,
        "meta_ephemeris_type": 0,
        "meta_classification_type": "U",
        "meta_norad_cat_id": 30003,
        "meta_element_set_no": 999,
        "meta_rev_at_epoch": 95460,
        "meta_bstar": 0.00040436246,
        "meta_mean_motion_dot": 4.55e-06,
        "meta_mean_motion_ddot": 0,
        "tle_line1": "1 30003U 99025MC  25344.73644991  .00000455  00000+0  40436-3 0  9995",
        "tle_line2": "2 30003  99.5764 319.4931 0143349 125.1382  47.1520 13.85621583954609"
      },
      "geometry": {
        "type": "Point",
        "coordinates": [
          145.98335958527795,
          30.721098141412533
        ]
      }
    }
  ]
}